{
  "type": "FeatureCollection",
  "features": [
    {
      "type": "Feature",
      "properties": {
        "norad_id": 29937,
        "name": "FENGYUN 1C DEB",
        "group": "fengyun-1c-debris",
        "lat": -13.137157151763372,
        "lon": -163.9059034077949,
        "alt_km": 904.7038063309119,
        "timestamp": "2025-12-23T11:34:48.436510+00:00",
        "meta_object_name": "FENGYUN 1C DEB",
        "meta_object_id": "1999-025JK",
        "meta_epoch": "2025-12-22T14:44:02.188608",
        "meta_mean_motion": 14.04360238,
        "meta_eccentricity": 0.00319021,
        "meta_inclination": 98.8016,
        "meta_ra_of_asc_node": 17.3247,
        "meta_arg_of_pericenter": 354.1071,
        "meta_mean_anomaly": 130.3077,
        "meta_ephemeris_type": 0,
        "meta_classification_type": "U",
        "meta_norad_cat_id": 29937,
        "meta_element_set_no": 999,
        "meta_rev_at_epoch": 97074,
        "meta_bstar": -4.766903e-05,
        "meta_mean_motion_dot": -1.19e-06,
        "meta_mean_motion_ddot": 0,
        "tle_line1": "1 29937U 99025JK  25356.61391422 -.00000119  00000+0 -47669-4 0  9992",
        "tle_line2": "2 29937  98.8016  17.3247 0031902 354.1071 130.3077 14.04360238970743"
      },
      "geometry": {
        "type": "Point",
        "coordinates": [
          -163.9059034077949,
          -13.137157151763372
        ]
      }
    },
    {
      "type": "Feature",
      "properties": {
        "norad_id": 29938,
        "name": "FENGYUN 1C DEB",
        "group": "fengyun-1c-debris",
        "lat": -57.59414553015023,
        "lon": 153.08895119503885,
        "alt_km": 857.295741912264,
        "timestamp": "2025-12-23T11:34:48.436519+00:00",
        "meta_object_name": "FENGYUN 1C DEB",
        "meta_object_id": "1999-025JL",
        "meta_epoch": "2025-12-22T21:05:53.848608",
        "meta_mean_motion": 14.07463849,
        "meta_eccentricity": 0.00326052,
        "meta_inclination": 98.8029,
        "meta_ra_of_asc_node": 346.6309,
        "meta_arg_of_pericenter": 281.5033,
        "meta_mean_anomaly": 141.664,
        "meta_ephemeris_type": 0,
        "meta_classification_type": "U",
        "meta_norad_cat_id": 29938,
        "meta_element_set_no": 999,
        "meta_rev_at_epoch": 97199,
        "meta_bstar": 5.5248324e-05,
        "meta_mean_motion_dot": 5e-07,
        "meta_mean_motion_ddot": 0,
        "tle_line1": "1 29938U 99025JL  25356.87909547  .00000050  00000+0  55248-4 0  9998",
        "tle_line2": "2 29938  98.8029 346.6309 0032605 281.5033 141.6640 14.07463849971991"
      },
      "geometry": {
        "type": "Point",
        "coordinates": [
          153.08895119503885,
          -57.59414553015023
        ]
      }
    },
    {
      "type": "Feature",
      "properties": {
        "norad_id": 29939,
        "name": "FENGYUN 1C DEB",
        "group": "fengyun-1c-debris",
        "lat": 46.571051501624545,
        "lon": -12.55661127152422,
        "alt_km": 824.2950011014627,
        "timestamp": "2025-12-23T11:34:48.436528+00:00",
        "meta_object_name": "FENGYUN 1C DEB",
        "meta_object_id": "1999-025JM",
        "meta_epoch": "2025-12-22T19:11:25.704384",
        "meta_mean_motion": 14.12086739,
        "meta_eccentricity": 0.00672521,
        "meta_inclination": 98.7099,
        "meta_ra_of_asc_node": 356.0996,
        "meta_arg_of_pericenter": 110.3198,
        "meta_mean_anomaly": 68.1102,
        "meta_ephemeris_type": 0,
        "meta_classification_type": "U",
        "meta_norad_cat_id": 29939,
        "meta_element_set_no": 999,
        "meta_rev_at_epoch": 97602,
        "meta_bstar": 3.675256e-05,
        "meta_mean_motion_dot": 2.7e-07,
        "meta_mean_motion_ddot": 0,
        "tle_line1": "1 29939U 99025JM  25356.79960306  .00000027  00000+0  36753-4 0  9994",
        "tle_line2": "2 29939  98.7099 356.0996 0067252 110.3198  68.1102 14.12086739976022"
      },
      "geometry": {
        "type": "Point",
        "coordinates": [
          -12.55661127152422,
          46.571051501624545
        ]
      }
    },
    {
      "type": "Feature",
      "properties": {
        "norad_id": 29940,
        "name": "FENGYUN 1C DEB",
        "group": "fengyun-1c-debris",
        "lat": 65.09017585193435,
        "lon": -154.06689329030166,
        "alt_km": 784.1400956463021,
        "timestamp": "2025-12-23T11:34:48.436537+00:00",
        "meta_object_name": "FENGYUN 1C DEB",
        "meta_object_id": "1999-025JN",
        "meta_epoch": "2025-12-21T23:39:25.003584",
        "meta_mean_motion": 14.18843811,
        "meta_eccentricity": 0.00746438,
        "meta_inclination": 98.621,
        "meta_ra_of_asc_node": 5.4104,
        "meta_arg_of_pericenter": 73.4752,
        "meta_mean_anomaly": 318.2453,
        "meta_ephemeris_type": 0,
        "meta_classification_type": "U",
        "meta_norad_cat_id": 29940,
        "meta_element_set_no": 999,
        "meta_rev_at_epoch": 97619,
        "meta_bstar": 0.00054571949,
        "meta_mean_motion_dot": 1.125e-05,
        "meta_mean_motion_ddot": 0,
        "tle_line1": "1 29940U 99025JN  25355.98570606  .00001125  00000+0  54572-3 0  9994",
        "tle_line2": "2 29940  98.6210   5.4104 0074643  73.4752 318.2453 14.18843811976195"
      },
      "geometry": {
        "type": "Point",
        "coordinates": [
          -154.06689329030166,
          65.09017585193435
        ]
      }
    },
    {
      "type": "Feature",
      "properties": {
        "norad_id": 29942,
        "name": "FENGYUN 1C DEB",
        "group": "fengyun-1c-debris",
        "lat": 60.6319406013469,
        "lon": 47.575675889592844,
        "alt_km": 819.5596833365644,
        "timestamp": "2025-12-23T11:34:48.436546+00:00",
        "meta_object_name": "FENGYUN 1C DEB",
        "meta_object_id": "1999-025JQ",
        "meta_epoch": "2025-12-22T21:51:35.344800",
        "meta_mean_motion": 14.30447072,
        "meta_eccentricity": 0.00491981,
        "meta_inclination": 98.6361,
        "meta_ra_of_asc_node": 62.6766,
        "meta_arg_of_pericenter": 245.7475,
        "meta_mean_anomaly": 113.8563,
        "meta_ephemeris_type": 0,
        "meta_classification_type": "U",
        "meta_norad_cat_id": 29942,
        "meta_element_set_no": 999,
        "meta_rev_at_epoch": 98014,
        "meta_bstar": 0.00063492137,
        "meta_mean_motion_dot": 1.63e-05,
        "meta_mean_motion_ddot": 0,
        "tle_line1": "1 29942U 99025JQ  25356.91082575  .00001630  00000+0  63492-3 0  9995",
        "tle_line2": "2 29942  98.6361  62.6766 0049198 245.7475 113.8563 14.30447072980140"
      },
      "geometry": {
        "type": "Point",
        "coordinates": [
          47.575675889592844,
          60.6319406013469
        ]
      }
    },
    {
      "type": "Feature",
      "properties": {
        "norad_id": 29943,
        "name": "FENGYUN 1C DEB",
        "group": "fengyun-1c-debris",
        "lat": -68.43239494153444,
        "lon": 27.776466718074133,
        "alt_km": 869.2520865352708,
        "timestamp": "2025-12-23T11:34:48.436555+00:00",
        "meta_object_name": "FENGYUN 1C DEB",
        "meta_object_id": "1999-025JR",
        "meta_epoch": "2025-12-22T22:36:37.070208",
        "meta_mean_motion": 14.09673191,
        "meta_eccentricity": 0.00352891,
        "meta_inclination": 98.7266,
        "meta_ra_of_asc_node": 4.3868,
        "meta_arg_of_pericenter": 197.7391,
        "meta_mean_anomaly": 230.7467,
        "meta_ephemeris_type": 0,
        "meta_classification_type": "U",
        "meta_norad_cat_id": 29943,
        "meta_element_set_no": 999,
        "meta_rev_at_epoch": 97450,
        "meta_bstar": 8.212657e-06,
        "meta_mean_motion_dot": -2.8e-07,
        "meta_mean_motion_ddot": 0,
        "tle_line1": "1 29943U 99025JR  25356.94209572 -.00000028  00000+0  82127-5 0  9996",
        "tle_line2": "2 29943  98.7266   4.3868 0035289 197.7391 230.7467 14.09673191974505"
      },
      "geometry": {
        "type": "Point",
        "coordinates": [
          27.776466718074133,
          -68.43239494153444
        ]
      }
    },
    {
      "type": "Feature",
      "properties": {
        "norad_id": 29944,
        "name": "FENGYUN 1C DEB",
        "group": "fengyun-1c-debris",
        "lat": -48.72684677387092,
        "lon": 102.59650415336218,
        "alt_km": 512.7647542272207,
        "timestamp": "2025-12-23T11:34:48.436564+00:00",
        "meta_object_name": "FENGYUN 1C DEB",
        "meta_object_id": "1999-025JS",
        "meta_epoch": "2025-12-22T08:43:31.458720",
        "meta_mean_motion": 14.87650909,
        "meta_eccentricity": 0.01665139,
        "meta_inclination": 99.0049,
        "meta_ra_of_asc_node": 291.7365,
        "meta_arg_of_pericenter": 201.167,
        "meta_mean_anomaly": 158.2598,
        "meta_ephemeris_type": 0,
        "meta_classification_type": "U",
        "meta_norad_cat_id": 29944,
        "meta_element_set_no": 999,
        "meta_rev_at_epoch": 597,
        "meta_bstar": 0.00069961254,
        "meta_mean_motion_dot": 8.152e-05,
        "meta_mean_motion_ddot": 0,
        "tle_line1": "1 29944U 99025JS  25356.36355855  .00008152  00000+0  69961-3 0  9993",
        "tle_line2": "2 29944  99.0049 291.7365 0166513 201.1670 158.2598 14.87650909  5971"
      },
      "geometry": {
        "type": "Point",
        "coordinates": [
          102.59650415336218,
          -48.72684677387092
        ]
      }
    }
  ]
}